     2              NAVIGATION DATA                         RINEX VERSION / TYPE
CCRINEXN V1.6.0 UX  CDDIS               09-JUN-26 05:31     PGM / RUN BY / DATE 
IGS BROADCAST EPHEMERIS FILE                                COMMENT             
    0.1583D-07  0.2235D-07 -0.1192D-06 -0.1192D-06          ION ALPHA           
    0.1126D+06  0.1475D+06 -0.1311D+06 -0.3932D+06          ION BETA            
    0.186264514923D-08 0.976996261670D-14   233472     2422 DELTA-UTC: A0,A1,T,W
    18                                                      LEAP SECONDS        
                                                            END OF HEADER       
25 26  6  8  2  0  0.0 0.416451133788D-03-0.306954461848D-11 0.000000000000D+00
    0.770000000000D+02 0.384687500000D+02 0.509164065870D-08 0.895963928951D-01
    0.211969017983D-05 0.128430769546D-01 0.834092497826D-05 0.515368358421D+04
    0.936000000000D+05-0.894069671631D-07-0.809735695736D+00 0.894069671631D-07
    0.947113586854D+00 0.211281250000D+03 0.116134237558D+01-0.851678332964D-08
    0.589310261423D-10 0.100000000000D+01 0.242200000000D+04 0.000000000000D+00
    0.200000000000D+01 0.000000000000D+00 0.558793544769D-08 0.770000000000D+02
    0.883080000000D+05 0.400000000000D+01 0.000000000000D+00 0.000000000000D+00
26 26  6  8  2  0  0.0-0.372935552150D-03-0.352429196937D-11 0.000000000000D+00
    0.620000000000D+02 0.378750000000D+02 0.538986736675D-08-0.757412315252D+00
    0.199675559998D-05 0.110828545876D-01 0.803172588348D-05 0.515376857948D+04
    0.936000000000D+05 0.126659870148D-06-0.886079610304D+00 0.188127160072D-06
    0.927818765319D+00 0.206906250000D+03 0.715937885504D+00-0.853499837408D-08
   -0.714315468392D-12 0.100000000000D+01 0.242200000000D+04 0.000000000000D+00
    0.200000000000D+01 0.000000000000D+00 0.651925802231D-08 0.620000000000D+02
    0.916380000000D+05 0.400000000000D+01 0.000000000000D+00 0.000000000000D+00
27 26  6  8  2  0  0.0 0.428874045610D-06 0.113686837722D-12 0.000000000000D+00
    0.860000000000D+02 0.111250000000D+02 0.473019703169D-08-0.246063169985D+01
    0.612810254097D-06 0.143262982601D-01 0.563450157642D-05 0.515367252350D+04
    0.936000000000D+05 0.147148966789D-06 0.244382206014D+00-0.111758708954D-06
    0.951720476806D+00 0.265406250000D+03 0.899971846114D+00-0.807390773924D-08
   -0.127862468842D-09 0.100000000000D+01 0.242200000000D+04 0.000000000000D+00
    0.200000000000D+01 0.000000000000D+00 0.232830643654D-08 0.860000000000D+02
    0.864180000000D+05 0.400000000000D+01 0.000000000000D+00 0.000000000000D+00
28 26  6  8  2  0  0.0-0.506590586156D-03 0.110276232590D-10 0.000000000000D+00
    0.140000000000D+02-0.467187500000D+02 0.461554939902D-08 0.169965453412D+01
   -0.222772359848D-05 0.486536300741D-03 0.941008329391D-05 0.515359921074D+04
    0.936000000000D+05 0.391155481338D-07-0.185814555593D+01-0.502914190292D-07
    0.961661267017D+00 0.196750000000D+03-0.428094160800D+00-0.801711965950D-08
   -0.835749098019D-10 0.100000000000D+01 0.242200000000D+04 0.000000000000D+00
    0.200000000000D+01 0.000000000000D+00-0.931322574616D-08 0.782000000000D+03
    0.864180000000D+05 0.400000000000D+01 0.000000000000D+00 0.000000000000D+00
29 26  6  8  2  0  0.0-0.305646099150D-03 0.750333128963D-11 0.000000000000D+00
    0.850000000000D+02 0.116250000000D+02 0.466662295501D-08-0.270087305772D+01
    0.530853867531D-06 0.362746324390D-02 0.612810254097D-05 0.515370570755D+04
    0.936000000000D+05-0.242143869400D-07 0.334654886919D+00 0.540167093277D-07
    0.960908807789D+00 0.261500000000D+03 0.281784044161D+01-0.818248369043D-08
   -0.307155651409D-09 0.100000000000D+01 0.242200000000D+04 0.000000000000D+00
    0.200000000000D+01 0.000000000000D+00-0.977888703346D-08 0.850000000000D+02
    0.864180000000D+05 0.400000000000D+01 0.000000000000D+00 0.000000000000D+00
30 26  6  8  2  0  0.0 0.251396559179D-03 0.138697942020D-10 0.000000000000D+00
    0.410000000000D+02-0.360937500000D+02 0.520700260684D-08 0.651171077443D+00
   -0.168755650520D-05 0.824809214100D-02 0.101607292891D-04 0.515371026039D+04
    0.936000000000D+05-0.298023223877D-07-0.184393317805D+01 0.633299350738D-07
    0.936028115911D+00 0.171281250000D+03-0.226663270409D+01-0.843856578585D-08
   -0.117862052285D-09 0.100000000000D+01 0.242200000000D+04 0.000000000000D+00
    0.200000000000D+01 0.000000000000D+00 0.419095158577D-08 0.410000000000D+02
    0.864180000000D+05 0.400000000000D+01 0.000000000000D+00 0.000000000000D+00
31 26  6  8  2  0  0.0-0.143885146826D-03 0.250111042988D-11 0.000000000000D+00
    0.150000000000D+02-0.349375000000D+02 0.479841415892D-08-0.151939846436D+00
   -0.169128179550D-05 0.108192887856D-01 0.956282019615D-05 0.515361437607D+04
    0.936000000000D+05-0.521540641785D-07-0.180884854041D+01 0.109896063805D-06
    0.954455071536D+00 0.192375000000D+03 0.959118020510D+00-0.827070165078D-08
   -0.725030200418D-10 0.100000000000D+01 0.242200000000D+04 0.000000000000D+00
    0.200000000000D+01 0.000000000000D+00-0.135041773319D-07 0.150000000000D+02
    0.864180000000D+05 0.400000000000D+01 0.000000000000D+00 0.000000000000D+00
32 26  6  8  2  0  0.0 0.973762944341D-04 0.210320649785D-10 0.000000000000D+00
    0.500000000000D+02-0.478750000000D+02 0.457661920599D-08-0.194610330356D+01
   -0.237673521042D-05 0.938904867507D-02 0.515393912792D-05 0.515377109528D+04
    0.936000000000D+05 0.163912773132D-06-0.288878780353D+01 0.298023223877D-07
    0.969199934039D+00 0.281312500000D+03-0.197749090877D+01-0.804783522464D-08
    0.141791620476D-09 0.100000000000D+01 0.242200000000D+04 0.000000000000D+00
    0.200000000000D+01 0.000000000000D+00 0.931322574616D-09 0.500000000000D+02
    0.864180000000D+05 0.400000000000D+01 0.000000000000D+00 0.000000000000D+00
20 26  6  8  2 14 40.0 0.187245663256D-03 0.147792889038D-10 0.000000000000D+00
    0.224000000000D+03-0.529375000000D+02 0.482591530446D-08 0.174771502106D+00
   -0.292435288429D-05 0.201405177359D-02 0.545382499695D-05 0.515360335922D+04
    0.944800000000D+05-0.409781932831D-07-0.290100813902D+01 0.167638063431D-07
    0.961593239864D+00 0.275656250000D+03-0.181564910235D+01-0.834141888215D-08
    0.267868300647D-10 0.100000000000D+01 0.242200000000D+04 0.000000000000D+00
    0.200000000000D+01 0.000000000000D+00-0.698491930962D-08 0.480000000000D+03
    0.873180000000D+05 0.400000000000D+01 0.000000000000D+00 0.000000000000D+00
 6 26  6  8  3 59 44.0-0.593981705606D-03 0.522959453519D-11 0.000000000000D+00
    0.580000000000D+02 0.167187500000D+02 0.374337021211D-08 0.278497896985D+01
    0.858679413795D-06 0.370211666450D-02 0.892207026482D-05 0.515369547653D+04
    0.100784000000D+06 0.391155481338D-07 0.133569868544D+01-0.186264514923D-08
    0.985936607783D+00 0.223750000000D+03-0.531108727976D+00-0.765281877062D-08
   -0.191436545529D-09 0.100000000000D+01 0.242200000000D+04 0.000000000000D+00
    0.200000000000D+01 0.000000000000D+00 0.372529029846D-08 0.580000000000D+02
    0.953580000000D+05 0.400000000000D+01 0.000000000000D+00 0.000000000000D+00
29 26  6  8  3 59 44.0-0.305590219796D-03 0.750333128963D-11 0.000000000000D+00
    0.180000000000D+02 0.703125000000D+01 0.470912472537D-08-0.165319717279D+01
    0.286847352982D-06 0.362783973105D-02 0.618025660515D-05 0.515370443726D+04
    0.100784000000D+06-0.335276126862D-07 0.334595783566D+00 0.000000000000D+00
    0.960906522711D+00 0.260250000000D+03 0.281799398364D+01-0.822427114533D-08
   -0.289654922433D-09 0.100000000000D+01 0.242200000000D+04 0.000000000000D+00
    0.200000000000D+01 0.000000000000D+00-0.977888700000D-08 0.180000000000D+02
    0.982500000000D+05 0.400000000000D+01 0.000000000000D+00 0.000000000000D+00
31 26  6  8  3 59 44.0-0.143864657730D-03 0.250111042988D-11 0.000000000000D+00
    0.160000000000D+02-0.413750000000D+02 0.480948604868D-08 0.895852482389D+00
   -0.190921127796D-05 0.108199183596D-01 0.102836638689D-04 0.515361620903D+04
    0.100784000000D+06-0.113621354103D-06-0.180890766424D+01 0.763684511185D-07
    0.954454397131D+00 0.181750000000D+03 0.959211338591D+00-0.825141513313D-08
   -0.111790370803D-09 0.100000000000D+01 0.242200000000D+04 0.000000000000D+00
    0.200000000000D+01 0.000000000000D+00-0.135041773319D-07 0.160000000000D+02
    0.941580000000D+05 0.400000000000D+01 0.000000000000D+00 0.000000000000D+00
32 26  6  8  3 59 44.0 0.975281000137D-04 0.210320649785D-10 0.000000000000D+00
    0.800000000000D+01-0.447187500000D+02 0.466519432407D-08-0.898369152064D+00
   -0.209175050259D-05 0.938908325043D-02 0.556558370590D-05 0.515377012062D+04
    0.100784000000D+06-0.447034835815D-07-0.288884606863D+01 0.230967998505D-06
    0.969199544903D+00 0.279125000000D+03-0.197743636240D+01-0.831748931396D-08
    0.846463830045D-10 0.100000000000D+01 0.242200000000D+04 0.000000000000D+00
    0.200000000000D+01 0.000000000000D+00 0.931322574616D-09 0.800000000000D+01
    0.958380000000D+05 0.400000000000D+01 0.000000000000D+00 0.000000000000D+00
 1 26  6  8  4  0  0.0 0.253727659583D-03-0.100044417195D-10 0.000000000000D+00
    0.135000000000D+03 0.631250000000D+01 0.431482258682D-08-0.272667551380D+01
    0.378116965294D-06 0.176659633871D-02 0.847876071930D-05 0.515361169815D+04
    0.100800000000D+06 0.167638063431D-07 0.138246081064D+01 0.428408384323D-07
    0.957151273444D+00 0.215062500000D+03 0.202475441549D+00-0.803819196582D-08
   -0.678599694973D-10 0.100000000000D+01 0.242200000000D+04 0.000000000000D+00
    0.280000000000D+01 0.000000000000D+00-0.884756445885D-08 0.135000000000D+03
    0.936180000000D+05 0.400000000000D+01 0.000000000000D+00 0.000000000000D+00
